FLTSATCOM 7 (USA 20)    
1 17181U 86096A   19083.60685708 -.00000159  00000-0  00000+0 0  9993
2 17181  14.5944   0.0275 0054660 328.9305 162.8274  0.99712223125780
TDRS 3                  
1 19548U 88091B   19086.10068267 -.00000313  00000-0  00000+0 0  9994
2 19548  14.3644   1.5476 0036971 321.7883 208.3026  1.00274590 98907
FLTSATCOM 8 (USA 46)    
1 20253U 89077A   19086.17002905 -.00000158  00000-0  00000+0 0  9995
2 20253  13.0612   9.1610 0006673 333.6964 247.1202  1.00270928234141
SKYNET 4C               
1 20776U 90079A   19086.15868148  .00000113  00000-0  00000+0 0  9996
2 20776  13.9811   9.8768 0003410 359.4991 265.4704  1.00272748104478
TDRS 5                  
1 21639U 91054B   19085.80425214  .00000070  00000-0  00000-0 0  9996
2 21639  14.6620  14.8291 0025367 348.1659 302.7668  1.00270618101241
TDRS 6                  
1 22314U 93003B   19086.35781337 -.00000307  00000-0  00000+0 0  9998
2 22314  14.2556  17.8823 0006619 346.5855 263.0125  1.00270280 95917
UFO 2 (USA 95)          
1 22787U 93056A   19085.97253311  .00000113  00000-0  00000+0 0  9997
2 22787  11.1279  18.3040 0003799  10.7659 173.9643  1.00279096 92199
USA 99 (MILSTAR-1 1)    
1 22988U 94009A   19086.36547841 -.00000278  00000-0  00000+0 0  9990
2 22988  13.3891  56.3123 0002243 339.3208 241.6067  1.00275278  5187
ASTRA 1D                
1 23331U 94070A   19085.88042872 -.00000283  00000-0  00000-0 0  9998
2 23331   8.4924  44.9194 0003962 322.3493  60.7052  1.00273921 89820
USA 107 (DSP 17)        
1 23435U 94084A   19086.17549534 -.00000315  00000-0  00000+0 0  9993
2 23435  14.4590  16.0546 0001866  40.4396 139.6361  1.00252307  5230
UFO 4 (USA 108)         
1 23467U 95003A   19086.32761035 -.00000038  00000-0  00000+0 0  9991
2 23467   9.9404  23.3474 0004025 352.6095  98.6134  1.00271391 88500
AMSC 1                  
1 23553U 95019A   19085.87379878 -.00000111  00000-0  00000-0 0  9996
2 23553  10.8180  34.5195 0009698 349.8304   7.7208  1.00272091 87706
TDRS 7                  
1 23613U 95035B   19085.84345883 -.00000215  00000-0  00000-0 0  9992
2 23613  14.3810   8.5794 0036736  29.5096 174.2581  1.00274968 86787
USA 113                 
1 23628U 95038A   19086.53833375 -.00000350  00000-0  00000+0 0  9995
2 23628  11.0151  33.4224 0001611 331.2535 117.4924  1.00268001  5158
USA 115 (MILSTAR-1 2)   
1 23712U 95060A   19085.99470237 -.00000213  00000-0  00000+0 0  9995
2 23712  12.9635  23.7463 0003058 344.8278  83.6400  1.00271819  5184
INMARSAT 3-F1           
1 23839U 96020A   19086.48216536 -.00000012  00000-0  00000+0 0  9994
2 23839   5.2104  64.5008 0006171 306.3261  51.8726  1.00273882 84167
ASTRA 1F                
1 23842U 96021A   19085.90380792  .00000119  00000-0  00000-0 0  9999
2 23842   0.0439   9.3408 0004527 359.0051 185.3184  1.00272267 25871
MSAT M1                 
1 23846U 96022A   19085.84701282 -.00000102  00000-0  00000+0 0  9990
2 23846   8.6762  44.3296 0007196 331.5930   5.4792  1.00272156 83966
INMARSAT 3-F2           
1 24307U 96053A   19086.52812282 -.00000279  00000-0  00000+0 0  9991
2 24307   3.9560  74.4051 0007502 292.2782 303.3584  0.99989300 82562
AMC-1 (GE-1)            
1 24315U 96054A   19086.55477541  .00000048  00000-0  00000+0 0  9992
2 24315   2.9451  81.5920 0003207 304.6472 227.2494  1.00273285 82560
INMARSAT 3-F3           
1 24674U 96070A   19086.40172529  .00000017  00000-0  00000+0 0  9996
2 24674   4.7049  68.6004 0005624 301.1883 137.4424  1.00272454 81508
AMC-2 (GE-2)            
1 24713U 97002A   19086.45233069 -.00000230  00000-0  00000+0 0  9996
2 24713   5.5327  62.6713 0005545 310.8317 249.0592  1.00273276 31865
INTELSAT 26 (IS-26)     
1 24732U 97007A   19086.48172918  .00000003  00000-0  00000+0 0  9997
2 24732   8.4117  45.6875 0005391 345.5164  29.0004  1.00272300 80820
USA 130 (DSP 18)        
1 24737U 97008A   19086.04014094  .00000014  00000-0  00000+0 0  9997
2 24737  13.3215  23.7069 0000459 353.9106 188.6619  1.00269173  5140
GALAXY 25 (G-25)        
1 24812U 97026A   19086.50001315 -.00000182  00000-0  00000+0 0  9991
2 24812   0.8908  93.8412 0003443 276.0580 261.6348  1.00271652 79890
INTELSAT 5 (IS-5)       
1 24916U 97046A   19086.15485619  .00000074  00000-0  00000+0 0  9991
2 24916   4.8127  67.9075 0003876 306.2841  88.8465  1.00271037 79150
AMC-3 (GE-3)            
1 24936U 97050A   19086.45494775 -.00000279  00000-0  00000+0 0  9992
2 24936   1.7819  88.8989 0002971 294.0888 253.3717  1.00272311 78987
NSS-5                   
1 24957U 97053A   19086.47937381  .00000089  00000-0  00000+0 0  9993
2 24957   5.0880  66.0993 0004788 318.9137  22.6538  1.00270605 78778
USA 134                 
1 25019U 97065A   19086.55527247 -.00000075  00000-0  00000+0 0  9997
2 25019   9.6966  39.0968 0008385 290.9847 302.5873  1.00275777  5147
ASTRA 1G                
1 25071U 97076A   19086.12179378  .00000049  00000-0  00000+0 0  9998
2 25071   3.6608  75.6261 0003742 290.7610 278.9093  1.00270710 78076
INMARSAT 3-F5           
1 25153U 98006B   19086.42315407 -.00000306  00000-0  00000+0 0  9998
2 25153   3.8806  72.2472 0005215 304.6897 265.9588  1.00273661 77426
UFO 8 (USA 138)         
1 25258U 98016A   19086.32761035 -.00000040  00000-0  00000+0 0  9991
2 25258   8.2108  34.6559 0006688 328.3633 110.8799  1.00272924 77119
THOR III                
1 25358U 98035A   19085.60699039 -.00000062  00000-0  00000-0 0  9992
2 25358   6.5091  55.5624 0002686 318.2768  24.1202  1.00272620 76374
INTELSAT 805 (IS-805)   
1 25371U 98037A   19086.43130682 -.00000050  00000-0  00000+0 0  9991
2 25371   1.4254  91.1428 0003645 290.7426 127.0380  1.00272040 76100
ASTRA 2A                
1 25462U 98050A   19086.05854774 -.00000324  00000-0  00000+0 0  9994
2 25462   0.5875  98.8261 0002635 262.6777 303.7481  1.00270158 75274
JCSAT-4A                
1 25630U 99006A   19085.92491900 -.00000222  00000-0  00000+0 0  9993
2 25630   3.6400  76.6643 0003477 325.5817 264.7997  1.00272139 73532
SKYNET 4E               
1 25639U 99009B   19085.14506164 -.00000048  00000-0  00000+0 0  9994
2 25639  10.6145  23.9159 0003277 320.5405 249.8367  1.00273731 73543
ASIASAT 3S              
1 25657U 99013A   19086.40212396 -.00000255  00000-0  00000+0 0  9990
2 25657   3.8427  75.0433 0004269 295.5682 104.7209  1.00270834 73368
NIMIQ 1                 
1 25740U 99027A   19086.42856431 -.00000218  00000-0  00000+0 0  9993
2 25740   0.0622  93.6551 0004016 274.9287 243.7296  1.00271493 72749
ASTRA 1H                
1 25785U 99033A   19085.88165000 -.00000294  00000-0  00000-0 0  9998
2 25785   5.0697  66.2422 0003084 301.8515  66.2611  1.00272224 24958
ABS-7                   
1 25894U 99046A   19085.90312439 -.00000382  00000-0  00000+0 0  9993
2 25894   0.0638  99.9184 0002371 270.0735 255.2864  1.00273053 70677
ABS-6                   
1 25924U 99053A   19086.50100830 -.00000139  00000-0  00000+0 0  9992
2 25924   0.0160 101.2022 0002711 293.9369 128.8804  1.00271868 71418
TELSTAR 12 (ORION 2)    
1 25949U 99059A   19086.24312230 -.00000082  00000-0  00000+0 0  9992
2 25949   2.2976  87.3374 0003144 277.1342 158.2153  1.00272481 71061
AMC-4 (GE-4)            
1 25954U 99060A   19085.72449715  .00000067  00000-0  00000-0 0  9994
2 25954   0.0144 257.9935 0002758 117.4302 294.3428  1.00273005 17228
UFO 10 (USA 146)        
1 25967U 99063A   19086.25535551 -.00000199  00000-0  00000+0 0  9990
2 25967   7.3702  36.9644 0012320 358.1197 218.2498  1.00295693 70875
GALAXY 11 (G-11)        
1 26038U 99071A   19086.35118858  .00000109  00000-0  00000+0 0  9997
2 26038   0.1799 107.1103 0004521 293.6152 298.2713  1.00027113 70611
USA 148                 
1 26052U 00001A   19086.14630708  .00000026  00000-0  00000+0 0  9996
2 26052   7.7335  49.2268 0003240 330.2242  37.6229  1.00271744  5165
ASIASTAR                
1 26107U 00016A   19086.05950733 -.00000352  00000-0  00000+0 0  9999
2 26107   3.0358  79.6301 0004722 297.5032 293.4967  1.00271951 69681
USA 149 (DSP 20)        
1 26356U 00024A   19086.55981545  .00000088  00000-0  00000+0 0  9999
2 26356  11.1776  29.7521 0000550 286.2173 265.2197  1.00287077  5146
EUTELSAT 80A            
1 26369U 00028A   19085.90904208 -.00000062  00000-0  00000-0 0  9990
2 26369   2.3934  83.6586 0006073 285.5667 212.3790  1.00270926 68971
TDRS 8                  
1 26388U 00034A   19085.96534545 -.00000246  00000-0  00000+0 0  9990
2 26388   8.5354  50.7216 0016412 293.2974 276.5148  1.00280125 68708
INTELSAT 9 (IS-9)       
1 26451U 00043A   19086.48251431 -.00000025  00000-0  00000+0 0  9994
2 26451   4.8015  68.1108 0003686 311.5903  44.7469  1.00271845 68384
BRASILSAT B4            
1 26469U 00046A   19086.16384149 -.00000189  00000-0  00000+0 0  9995
2 26469   3.0123  81.3029 0003991 307.1608 122.8156  1.00271851 68170
ASTRA 2B                
1 26494U 00054A   19086.32958976  .00000100  00000-0  00000+0 0  9997
2 26494   3.5556  76.2721 0005346 298.6030 307.6348  1.00275482 67779
AMC-7 (GE-7)            
1 26495U 00054B   19085.72449715  .00000067  00000-0  00000+0 0  9999
2 26495   0.2835  95.0972 0002791 277.6976 296.8778  1.00272221 67783
NSS-11 (AAP-1)          
1 26554U 00059A   19085.85835802  .00000004  00000-0  00000+0 0  9991
2 26554   0.0141 161.4590 0002758 218.5419 289.0001  1.00271482 67714
USA 153                 
1 26575U 00065A   19085.81982758 -.00000340  00000-0  00000+0 0  9994
2 26575   7.1736  52.3749 0002173 320.1201 240.9493  1.00268346  5144
AMC-6 (GE-6)            
1 26580U 00067A   19086.13799578 -.00000236  00000-0  00000+0 0  9998
2 26580   0.0142 108.4333 0002640 271.4276 131.0697  1.00271287 67528
INTELSAT 12 (IS-12)     
1 26590U 00068A   19085.91135104 -.00000007  00000-0  00000-0 0  9991
2 26590   1.8935  88.6570 0002121 280.1102 207.6180  1.00274119 25257
